OBJECT_NAME,OBJECT_ID,EPOCH,MEAN_MOTION,ECCENTRICITY,INCLINATION,RA_OF_ASC_NODE,ARG_OF_PERICENTER,MEAN_ANOMALY,EPHEMERIS_TYPE,CLASSIFICATION_TYPE,NORAD_CAT_ID,ELEMENT_SET_NO,REV_AT_EPOCH,BSTAR,MEAN_MOTION_DOT,MEAN_MOTION_DDOT
TJS-7,2021-077A,2026-07-11T11:22:31.842624,1.00269693,.0003034,0.2962,264.1348,109.1503,347.2322,0,U,49115,999,979,0,-.117E-5,0
CHINASAT 9B,2021-080A,2026-07-11T12:19:48.805248,1.00270238,.0002106,0.0236,85.8517,59.8036,70.1372,0,U,49125,999,1789,0,-.307E-5,0
SHIJIAN-21 (SJ-21),2021-094A,2026-07-10T18:21:01.333728,1.00280176,.0051689,5.1659,61.0327,168.8611,101.8212,0,U,49330,999,559,0,-.344E-5,0
SES-17,2021-095A,2026-07-11T05:07:54.500736,1.00271236,.0001106,0.0219,45.8226,94.4892,158.6910,0,U,49332,999,1809,0,-.265E-5,0
SYRACUSE 4A,2021-095B,2026-07-11T10:21:01.822176,1.00266868,.0001589,0.0264,45.4406,64.7984,19.8596,0,U,49333,999,1819,0,0,0
QZS-1R (MICHIBIKI-1R),2021-096A,2026-07-10T14:11:14.484768,1.00246773,.0754836,37.5070,79.2376,272.1561,282.0570,0,U,49336,999,1724,0,-.288E-5,0
ZHONGXING-1D,2021-114A,2026-07-11T12:27:55.525824,1.00270358,.0000481,0.0479,238.1363,27.8450,340.6224,0,U,49505,999,1706,0,-.33E-5,0
STPSAT-6,2021-118A,2026-07-11T11:19:02.178336,1.00269773,.0000969,0.3807,85.1298,237.9113,24.3304,0,U,49817,999,1681,0,-.39E-6,0
EXPRESS AMU-7,2021-123A,2026-07-11T10:50:38.552640,1.00270908,.0000151,0.0178,303.5758,332.2923,321.1530,0,U,50001,999,1678,0,-.237E-5,0
EXPRESS AMU-3,2021-123B,2026-07-10T21:53:07.360800,1.00270202,.0000223,0.0162,353.8186,349.6712,16.5095,0,U,50002,999,727,0,0,0
TIANLIAN 2-02,2021-124A,2026-07-11T10:56:52.148832,1.00270524,.0001468,0.8606,85.7714,163.8759,14.9064,0,U,50005,999,1686,0,-.9E-7,0
TURKSAT 5B,2021-126A,2026-07-11T10:20:01.916736,1.00272499,.0002473,0.0690,339.9573,11.1708,135.2148,0,U,50212,999,1654,0,.152E-5,0
INMARSAT 6-F1,2021-128A,2026-07-11T01:58:49.740096,1.00273125,.0000239,0.0136,327.4277,223.1674,211.8553,0,U,50319,999,1649,0,-.164E-5,0
SHIYAN-12 01 (SY-12 01),2021-129A,2026-07-10T17:13:18.607008,1.00048917,.0002612,3.7322,79.5938,285.3111,222.9004,0,U,50321,999,1673,0,.156E-5,0
SHIYAN-12 02 (SY-12 02),2021-129B,2026-07-10T18:14:10.135392,1.00479575,.0003046,3.7315,79.5940,69.9045,159.7814,0,U,50322,999,1673,0,-.35E-5,0
TJS-9,2021-135A,2026-07-11T14:12:40.661856,1.00273916,.0002243,0.0380,105.3525,324.0287,210.5067,0,U,50574,999,1667,0,-.293E-5,0
GOES 18,2022-021A,2026-07-11T12:04:38.583840,1.00272491,.0000603,0.0106,96.7463,96.0492,140.7726,0,U,51850,999,683,0,.102E-5,0
ZHONGXING-6D,2022-038A,2026-07-10T20:24:44.855424,1.00274360,.0000485,0.0365,248.3949,271.4104,200.1943,0,U,52255,999,1565,0,-.345E-5,0
NILESAT 301,2022-061A,2026-07-11T08:41:38.595264,1.00269288,.000359,0.0476,345.1840,92.8729,334.6722,0,U,52817,999,1497,0,-.51E-6,0
CMS-02 (GSAT-24),2022-067A,2026-07-11T12:14:38.597280,1.00271935,.0000672,0.0137,96.9570,251.8058,207.3096,0,U,52903,999,1485,0,-.159E-5,0
MEASAT 3D,2022-067B,2026-07-11T00:18:19.730304,1.00281320,.0000128,0.0532,301.4385,111.5907,331.9809,0,U,52904,999,1488,0,-.235E-5,0
SES-22,2022-071A,2026-07-11T11:11:10.430880,1.00269935,.0000798,0.0153,318.4999,144.1800,215.4697,0,U,52933,999,776,0,.111E-5,0
WFOV (USA 332),2022-073A,2026-07-11T12:24:48.326400,1.00269166,.0001527,3.7704,78.2202,215.0316,301.6802,0,U,52940,999,1461,0,-.36E-5,0
TIANLIAN 2-03,2022-078A,2026-07-11T08:40:38.744256,1.00272702,.0000914,0.7311,77.4431,358.3480,354.2574,0,U,53100,999,1478,0,.78E-6,0
SBIRS GEO-6 (USA 336),2022-092A,2026-07-11T05:39:52.799328,1.00270401,.0001654,3.2186,317.8723,152.6508,42.5987,0,U,53355,999,1447,0,-.281E-5,0
EUTELSAT KONNECT VHTS,2022-110A,2026-07-11T08:41:38.595264,1.00268324,.0002699,0.0589,98.6728,345.2894,338.4101,0,U,53765,999,707,0,.23E-6,0
ZHONGXING-1E,2022-112A,2026-07-10T19:07:33.866400,1.00272702,.0000895,0.0650,237.2315,44.7131,15.0344,0,U,53813,999,1408,0,-.14E-5,0
SES-20,2022-123A,2026-07-11T08:10:28.295328,1.00274431,.0001994,0.0158,63.9469,39.3505,205.4723,0,U,53960,999,1377,0,-.95E-6,0
SES-21,2022-123B,2026-07-11T12:04:38.583840,1.00267770,.0000972,0.0388,32.2303,81.1605,226.2549,0,U,53961,999,745,0,0,0
GALAXY 33 (G-33),2022-128A,2026-07-11T11:23:38.603040,1.00270878,.0001773,0.0140,26.5296,92.1598,208.6012,0,U,54026,999,1398,0,.85E-6,0
GALAXY 34 (G-34),2022-128B,2026-07-11T00:58:08.412960,1.00269972,.0001349,0.0112,37.5715,92.1383,44.7761,0,U,54027,999,1415,0,.67E-6,0
ANGOSAT 2,2022-131A,2026-07-11T11:57:13.517568,1.00271398,.0000238,0.0206,116.2041,125.0439,250.4629,0,U,54033,999,1372,0,.141E-5,0
