TJS-7                   
1 49115U 21077A   26192.47397966 -.00000117  00000+0  00000+0 0  9996
2 49115   0.2962 264.1348 0003034 109.1503 347.2322  1.00269693  9792
CHINASAT 9B             
1 49125U 21080A   26192.51375932 -.00000307  00000+0  00000+0 0  9996
2 49125   0.0236  85.8517 0002106  59.8036  70.1372  1.00270238 17896
SHIJIAN-21 (SJ-21)      
1 49330U 21094A   26191.76459877 -.00000344  00000+0  00000+0 0  9997
2 49330   5.1659  61.0327 0051689 168.8611 101.8212  1.00280176  5595
SES-17                  
1 49332U 21095A   26192.21382524 -.00000265  00000+0  00000+0 0  9997
2 49332   0.0219  45.8226 0001106  94.4892 158.6910  1.00271236 18096
SYRACUSE 4A             
1 49333U 21095B   26192.43127109  .00000000  00000+0  00000+0 0  9994
2 49333   0.0264  45.4406 0001589  64.7984  19.8596  1.00266868 18194
QZS-1R (MICHIBIKI-1R)   
1 49336U 21096A   26191.59113987 -.00000288  00000+0  00000+0 0  9992
2 49336  37.5070  79.2376 0754836 272.1561 282.0570  1.00246773 17248
ZHONGXING-1D            
1 49505U 21114A   26192.51939266 -.00000330  00000+0  00000+0 0  9998
2 49505   0.0479 238.1363 0000481  27.8450 340.6224  1.00270358 17061
STPSAT-6                
1 49817U 21118A   26192.47155299 -.00000039  00000+0  00000+0 0  9995
2 49817   0.3807  85.1298 0000969 237.9113  24.3304  1.00269773 16819
EXPRESS AMU-7           
1 50001U 21123A   26192.45183510 -.00000237  00000+0  00000+0 0  9993
2 50001   0.0178 303.5758 0000151 332.2923 321.1530  1.00270908 16780
EXPRESS AMU-3           
1 50002U 21123B   26191.91189075  .00000000  00000+0  00000+0 0  9993
2 50002   0.0162 353.8186 0000223 349.6712  16.5095  1.00270202  7277
TIANLIAN 2-02           
1 50005U 21124A   26192.45615913 -.00000009  00000+0  00000+0 0  9992
2 50005   0.8606  85.7714 0001468 163.8759  14.9064  1.00270524 16868
TURKSAT 5B              
1 50212U 21126A   26192.43057774  .00000152  00000+0  00000+0 0  9995
2 50212   0.0690 339.9573 0002473  11.1708 135.2148  1.00272499 16544
INMARSAT 6-F1           
1 50319U 21128A   26192.08252014 -.00000164  00000+0  00000+0 0  9994
2 50319   0.0136 327.4277 0000239 223.1674 211.8553  1.00273125 16497
SHIYAN-12 01 (SY-12 01) 
1 50321U 21129A   26191.71757647  .00000156  00000+0  00000+0 0  9999
2 50321   3.7322  79.5938 0002612 285.3111 222.9004  1.00048917 16739
SHIYAN-12 02 (SY-12 02) 
1 50322U 21129B   26191.75983953 -.00000350  00000+0  00000+0 0  9992
2 50322   3.7315  79.5940 0003046  69.9045 159.7814  1.00479575 16733
TJS-9                   
1 50574U 21135A   26192.59213729 -.00000293  00000+0  00000+0 0  9994
2 50574   0.0380 105.3525 0002243 324.0287 210.5067  1.00273916 16672
GOES 18                 
1 51850U 22021A   26192.50322435  .00000102  00000+0  00000+0 0  9991
2 51850   0.0106  96.7463 0000603  96.0492 140.7726  1.00272491  6832
ZHONGXING-6D            
1 52255U 22038A   26191.85051916 -.00000345  00000+0  00000+0 0  9999
2 52255   0.0365 248.3949 0000485 271.4104 200.1943  1.00274360 15659
NILESAT 301             
1 52817U 22061A   26192.36225226 -.00000051  00000+0  00000+0 0  9997
2 52817   0.0476 345.1840 0003590  92.8729 334.6722  1.00269288 14975
CMS-02 (GSAT-24)        
1 52903U 22067A   26192.51016895 -.00000159  00000+0  00000+0 0  9995
2 52903   0.0137  96.9570 0000672 251.8058 207.3096  1.00271935 14855
MEASAT 3D               
1 52904U 22067B   26192.01272836 -.00000235  00000+0  00000+0 0  9995
2 52904   0.0532 301.4385 0000128 111.5907 331.9809  1.00281320 14882
SES-22                  
1 52933U 22071A   26192.46609295  .00000111  00000+0  00000+0 0  9996
2 52933   0.0153 318.4999 0000798 144.1800 215.4697  1.00269935  7767
WFOV (USA 332)          
1 52940U 22073A   26192.51722600 -.00000360  00000+0  00000+0 0  9995
2 52940   3.7704  78.2202 0001527 215.0316 301.6802  1.00269166 14610
TIANLIAN 2-03           
1 53100U 22078A   26192.36155954  .00000078  00000+0  00000+0 0  9999
2 53100   0.7311  77.4431 0000914 358.3480 354.2574  1.00272702 14785
SBIRS GEO-6 (USA 336)   
1 53355U 22092A   26192.23602777 -.00000281  00000+0  00000+0 0  9990
2 53355   3.2186 317.8723 0001654 152.6508  42.5987  1.00270401 14473
EUTELSAT KONNECT VHTS   
1 53765U 22110A   26192.36225226  .00000023  00000+0  00000+0 0  9993
2 53765   0.0589  98.6728 0002699 345.2894 338.4101  1.00268324  7071
ZHONGXING-1E            
1 53813U 22112A   26191.79691975 -.00000140  00000+0  00000+0 0  9994
2 53813   0.0650 237.2315 0000895  44.7131  15.0344  1.00272702 14089
SES-20                  
1 53960U 22123A   26192.34060527 -.00000095  00000+0  00000+0 0  9993
2 53960   0.0158  63.9469 0001994  39.3505 205.4723  1.00274431 13777
SES-21                  
1 53961U 22123B   26192.50322435  .00000000  00000+0  00000+0 0  9996
2 53961   0.0388  32.2303 0000972  81.1605 226.2549  1.00267770  7453
GALAXY 33 (G-33)        
1 54026U 22128A   26192.47475235  .00000085  00000+0  00000+0 0  9990
2 54026   0.0140  26.5296 0001773  92.1598 208.6012  1.00270878 13989
GALAXY 34 (G-34)        
1 54027U 22128B   26192.04037515  .00000067  00000+0  00000+0 0  9999
2 54027   0.0112  37.5715 0001349  92.1383  44.7761  1.00269972 14151
ANGOSAT 2               
1 54033U 22131A   26192.49807312  .00000141  00000+0  00000+0 0  9992
2 54033   0.0206 116.2041 0000238 125.0439 250.4629  1.00271398 13729
